[
   {
      "name": "STARLINK-2198",
      "line1": "1 47775U 21017BF  21092.91668981 -.01009350  00000-0 -83655-2 0  9992",
      "line2": "2 47775  53.0462  37.0041 0001175  66.2746 258.0931 15.72024127  1776",
      "bstar": -836.55,
      "inc": 53.0462,
      "raan": 37.0041,
      "ecc": 0.0001175,
      "argp": 66.2746,
      "nu": 258.0931,
      "mmo": 15.72024127,
      "a": 6731.24973
   },
   {
      "name": "STARLINK-2209",
      "line1": "1 47776U 21017BG  21092.91668981  .00017631  00000-0  12977-3 0  9991",
      "line2": "2 47776  53.0483  36.9714 0000929  74.4817 264.0461 15.73197214  1775",
      "bstar": 12.977,
      "inc": 53.0483,
      "raan": 36.9714,
      "ecc": 9.29e-05,
      "argp": 74.4817,
      "nu": 264.0461,
      "mmo": 15.73197214,
      "a": 6727.90312
   },
   {
      "name": "STARLINK-2210",
      "line1": "1 47777U 21017BH  21092.91668981 -.00053686  00000-0 -38039-3 0  9991",
      "line2": "2 47777  53.0484  36.9723 0001383  82.5435 255.4219 15.73204531  1774",
      "bstar": -38.039,
      "inc": 53.0484,
      "raan": 36.9723,
      "ecc": 0.0001383,
      "argp": 82.5435,
      "nu": 255.4219,
      "mmo": 15.73204531,
      "a": 6727.88226
   },
   {
      "name": "STARLINK-2211",
      "line1": "1 47778U 21017BJ  21092.91668981 -.00021235  00000-0 -14686-3 0  9999",
      "line2": "2 47778  53.0441  35.4693 0001332 115.1080 226.9049 15.73258304  1783",
      "bstar": -14.686,
      "inc": 53.0441,
      "raan": 35.4693,
      "ecc": 0.0001332,
      "argp": 115.108,
      "nu": 226.9049,
      "mmo": 15.73258304,
      "a": 6727.72895
   },
   {
      "name": "STARLINK-2212",
      "line1": "1 47779U 21017BK  21092.91668981 -.00072089  00000-0 -51274-3 0  9997",
      "line2": "2 47779  53.0486  36.9639 0001376  79.3684 263.0032 15.73235533  1770",
      "bstar": -51.274,
      "inc": 53.0486,
      "raan": 36.9639,
      "ecc": 0.0001376,
      "argp": 79.3684,
      "nu": 263.0032,
      "mmo": 15.73235533,
      "a": 6727.79387
   },
   {
      "name": "STARLINK-2213",
      "line1": "1 47780U 21017BL  21092.91668981  .00013678  00000-0  10174-3 0  9990",
      "line2": "2 47780  53.0458  36.7526 0008077 290.5876 152.1070 15.73163091  1778",
      "bstar": 10.174,
      "inc": 53.0458,
      "raan": 36.7526,
      "ecc": 0.0008077,
      "argp": 290.5876,
      "nu": 152.107,
      "mmo": 15.73163091,
      "a": 6728.00041
   },
   {
      "name": "STARLINK-2223",
      "line1": "1 47781U 21017BM  21092.91668981 -.00037779  00000-0 -26574-3 0  9992",
      "line2": "2 47781  53.0486  36.9552 0001230  76.6813 269.5047 15.73215693  1772",
      "bstar": -26.574,
      "inc": 53.0486,
      "raan": 36.9552,
      "ecc": 0.000123,
      "argp": 76.6813,
      "nu": 269.5047,
      "mmo": 15.73215693,
      "a": 6727.85043
   },
   {
      "name": "STARLINK-2257",
      "line1": "1 47787U 21018A   21092.91668981  .00064184  00000-0  45925-3 0  9998",
      "line2": "2 47787  53.0504  75.7871 0001472  75.0732 209.1240 15.73144497  1773",
      "bstar": 45.925,
      "inc": 53.0504,
      "raan": 75.7871,
      "ecc": 0.0001472,
      "argp": 75.0732,
      "nu": 209.124,
      "mmo": 15.73144497,
      "a": 6728.05342
   },
   {
      "name": "STARLINK-2314",
      "line1": "1 47788U 21018B   21092.91668981  .00062503  00000-0  44698-3 0  9998",
      "line2": "2 47788  53.0491  75.8451 0000853  54.2359 202.6024 15.73168236  1775",
      "bstar": 44.698,
      "inc": 53.0491,
      "raan": 75.8451,
      "ecc": 8.53e-05,
      "argp": 54.2359,
      "nu": 202.6024,
      "mmo": 15.73168236,
      "a": 6727.98574
   },
   {
      "name": "STARLINK-2315",
      "line1": "1 47789U 21018C   21092.91668981  .00062654  00000-0  44824-3 0  9997",
      "line2": "2 47789  53.0492  75.8407 0001202  70.2681 188.4529 15.73157560  1772",
      "bstar": 44.824,
      "inc": 53.0492,
      "raan": 75.8407,
      "ecc": 0.0001202,
      "argp": 70.2681,
      "nu": 188.4529,
      "mmo": 15.7315756,
      "a": 6728.01618
   },
   {
      "name": "STARLINK-2319",
      "line1": "1 47790U 21018D   21092.91668981  .00061887  00000-0  44241-3 0  9999",
      "line2": "2 47790  53.0491  75.8435 0000970  63.8387 193.6456 15.73180963  1776",
      "bstar": 44.241,
      "inc": 53.0491,
      "raan": 75.8435,
      "ecc": 9.7e-05,
      "argp": 63.8387,
      "nu": 193.6456,
      "mmo": 15.73180963,
      "a": 6727.94945
   },
   {
      "name": "STARLINK-2322",
      "line1": "1 47791U 21018E   21092.91668981 -.00039388  00000-0 -27743-3 0  9991",
      "line2": "2 47791  53.0499  75.8099 0001253  64.6901 208.7044 15.73204526  1770",
      "bstar": -27.743,
      "inc": 53.0499,
      "raan": 75.8099,
      "ecc": 0.0001253,
      "argp": 64.6901,
      "nu": 208.7044,
      "mmo": 15.73204526,
      "a": 6727.88227
   },
   {
      "name": "STARLINK-2334",
      "line1": "1 47792U 21018F   21092.91668981 -.00007347  00000-0 -47995-4 0  9994",
      "line2": "2 47792  53.0499  75.8192 0001069  63.6800 205.3086 15.73185043  1778",
      "bstar": -4.7995,
      "inc": 53.0499,
      "raan": 75.8192,
      "ecc": 0.0001069,
      "argp": 63.68,
      "nu": 205.3086,
      "mmo": 15.73185043,
      "a": 6727.93782
   },
   {
      "name": "STARLINK-2338",
      "line1": "1 47793U 21018G   21092.91668981  .00059940  00000-0  42902-3 0  9991",
      "line2": "2 47793  53.0495  75.8264 0001060  60.5532 205.1996 15.73164761  1776",
      "bstar": 42.902,
      "inc": 53.0495,
      "raan": 75.8264,
      "ecc": 0.000106,
      "argp": 60.5532,
      "nu": 205.1996,
      "mmo": 15.73164761,
      "a": 6727.99564
   },
   {
      "name": "STARLINK-2341",
      "line1": "1 47794U 21018H   21092.91668981  .00062405  00000-0  44607-3 0  9996",
      "line2": "2 47794  53.0497  75.8275 0001002  62.5901 202.5100 15.73179815  1773",
      "bstar": 44.607,
      "inc": 53.0497,
      "raan": 75.8275,
      "ecc": 0.0001002,
      "argp": 62.5901,
      "nu": 202.51,
      "mmo": 15.73179815,
      "a": 6727.95272
   },
   {
      "name": "STARLINK-2347",
      "line1": "1 47795U 21018J   21092.91668981  .00061173  00000-0  43783-3 0  9992",
      "line2": "2 47795  53.0498  75.8221 0001069  67.3177 200.3713 15.73157296  1772",
      "bstar": 43.783,
      "inc": 53.0498,
      "raan": 75.8221,
      "ecc": 0.0001069,
      "argp": 67.3177,
      "nu": 200.3713,
      "mmo": 15.73157296,
      "a": 6728.01693
   },
   {
      "name": "STARLINK-2373",
      "line1": "1 47796U 21018K   21092.91668981  .00046200  00000-0  33222-3 0  9994",
      "line2": "2 47796  53.0494  75.8287 0001349  69.6704 194.8421 15.73165470  1779",
      "bstar": 33.222,
      "inc": 53.0494,
      "raan": 75.8287,
      "ecc": 0.0001349,
      "argp": 69.6704,
      "nu": 194.8421,
      "mmo": 15.7316547,
      "a": 6727.99362
   },
   {
      "name": "STARLINK-2377",
      "line1": "1 47797U 21018L   21092.91668981 -.00039948  00000-0 -28137-3 0  9997",
      "line2": "2 47797  53.0505  75.7835 0001377  71.4164 214.6638 15.73211207  1774",
      "bstar": -28.137,
      "inc": 53.0505,
      "raan": 75.7835,
      "ecc": 0.0001377,
      "argp": 71.4164,
      "nu": 214.6638,
      "mmo": 15.73211207,
      "a": 6727.86322
   },
   {
      "name": "STARLINK-2379",
      "line1": "1 47798U 21018M   21092.91668981 -.00018048  00000-0 -12443-3 0  9999",
      "line2": "2 47798  53.0494  75.8326 0001204  66.7467 195.8204 15.73199491  1779",
      "bstar": -12.443,
      "inc": 53.0494,
      "raan": 75.8326,
      "ecc": 0.0001204,
      "argp": 66.7467,
      "nu": 195.8204,
      "mmo": 15.73199491,
      "a": 6727.89663
   },
   {
      "name": "STARLINK-2380",
      "line1": "1 47799U 21018N   21092.91668981  .00062641  00000-0  44786-3 0  9991",
      "line2": "2 47799  53.0495  75.8316 0000949  56.7456 206.4481 15.73172690  1770",
      "bstar": 44.786,
      "inc": 53.0495,
      "raan": 75.8316,
      "ecc": 9.49e-05,
      "argp": 56.7456,
      "nu": 206.4481,
      "mmo": 15.7317269,
      "a": 6727.97304
   },
   {
      "name": "STARLINK-2381",
      "line1": "1 47800U 21018P   21092.91668981  .00061825  00000-0  44220-3 0  9990",
      "line2": "2 47800  53.0492  75.8382 0001079  60.0993 199.9139 15.73168799  1773",
      "bstar": 44.22,
      "inc": 53.0492,
      "raan": 75.8382,
      "ecc": 0.0001079,
      "argp": 60.0993,
      "nu": 199.9139,
      "mmo": 15.73168799,
      "a": 6727.98413
   },
   {
      "name": "STARLINK-2382",
      "line1": "1 47801U 21018Q   21092.91668981  .00062486  00000-0  44681-3 0  9996",
      "line2": "2 47801  53.0497  75.8180 0001245  72.9654 196.5840 15.73170589  1778",
      "bstar": 44.681,
      "inc": 53.0497,
      "raan": 75.818,
      "ecc": 0.0001245,
      "argp": 72.9654,
      "nu": 196.584,
      "mmo": 15.73170589,
      "a": 6727.97903
   },
   {
      "name": "STARLINK-2383",
      "line1": "1 47802U 21018R   21092.91668981 -.00002168  00000-0 -11040-4 0  9994",
      "line2": "2 47802  53.0506  75.7804 0001235  70.4425 216.9434 15.73181109  1776",
      "bstar": -1.104,
      "inc": 53.0506,
      "raan": 75.7804,
      "ecc": 0.0001235,
      "argp": 70.4425,
      "nu": 216.9434,
      "mmo": 15.73181109,
      "a": 6727.94903
   },
   {
      "name": "STARLINK-2384",
      "line1": "1 47803U 21018S   21092.91668981  .00061934  00000-0  44290-3 0  9991",
      "line2": "2 47803  53.0491  75.8424 0000856  57.1140 200.9923 15.73172513  1778",
      "bstar": 44.29,
      "inc": 53.0491,
      "raan": 75.8424,
      "ecc": 8.56e-05,
      "argp": 57.114,
      "nu": 200.9923,
      "mmo": 15.73172513,
      "a": 6727.97354
   }
]